satname,norad_id,inclination_deg,eccentricity,mean_motion_rev_per_day,perigee_km,apogee_km,l1,l2
STARLINK-1008,44714,53.1553,0.0003189,15.34226723,461.03659623235126,465.4000126455212,1 44714U 19074B   26098.12190329  .00063954  00000+0  18981-2 0  9998,2 44714  53.1553  41.5837 0003189 131.3970 228.7307 15.34226723353383
STARLINK-1012,44718,53.1601,0.0003554,15.33482286,463.000035315059,467.86444433072484,1 44718U 19074F   26098.24795809  .00073941  00000+0  22419-2 0  9997,2 44718  53.1601  41.2277 0003554 128.1021 232.0302 15.33482286353394
STARLINK-1017,44723,53.0528,0.0003329,15.27094023,482.2200984928322,486.78924531798657,1 44723U 19074L   26098.54922935  .00035538  00000+0  13261-2 0  9993,2 44723  53.0528  33.4100 0003329 129.8796 230.2495 15.27094023353521
STARLINK-1019,44724,53.0386,0.0003236,15.92609745,292.82348819348863,297.1423313991081,1 44724U 19074M   26098.58339120  .00289365  42858-4  83389-3 0  9996,2 44724  53.0386 345.2913 0003236 238.4455   2.8947 15.92609745  6015
STARLINK-1020,44725,53.1616,0.0002961,15.32646553,465.8927048437199,469.9469396938666,1 44725U 19074N   26098.63306372  .00061034  00000+0  19052-2 0  9990,2 44725  53.1616  64.6024 0002961 119.8367 240.2930 15.32646553353080
STARLINK-1031,44736,53.0235,0.0008584,16.30765574,184.84469554785846,196.12170270572005,1 44736U 19074Z   26098.95240100  .04371538  12093-4  85876-3 0  9998,2 44736  53.0235 323.0911 0008584 258.3097 101.6982 16.30765574354544
STARLINK-1036,44741,53.0469,0.000518,15.62609671,376.6212944344379,383.62285083368715,1 44741U 19074AE  26098.55066763  .00112185  00000+0  12204-2 0  9992,2 44741  53.0469  43.3090 0005180  84.9199 275.2406 15.62609671353383
STARLINK-1039,44744,53.0641,0.0001252,15.24491222,491.45344067286715,493.17380150838835,1 44744U 19074AH  26098.34280604  .00054966  00000+0  22046-2 0  9991,2 44744  53.0641  78.5407 0001252  44.4099 315.6999 15.24491222352874
STARLINK-1042,44747,53.0445,0.0001003,15.51476871,411.73221362639197,413.0943980177399,1 44747U 19074AL  26097.91534110  .00021137  00000+0  35858-3 0  9990,2 44747  53.0445 314.4042 0001003 181.2011 178.8995 15.51476871354605
STARLINK-1043,44748,53.0524,0.000274,15.55754173,398.1040282882377,401.8184261167453,1 44748U 19074AM  26098.16479556  .00031451  00000+0  45328-3 0  9994,2 44748  53.0524  52.0708 0002740 113.0522 247.0777 15.55754173353230
STARLINK-1046,44751,53.0507,0.0001481,15.47483546,423.08301525777097,425.09783502109804,1 44751U 19074AQ  26098.58339120  .00031951  00000+0  61818-3 0  9993,2 44751  53.0507  68.4357 0001481 313.4891 200.1898 15.47483546  5896
STARLINK-1047,44752,53.0704,0.0001973,15.3337289,464.4074310818496,467.1080319429029,1 44752U 19074AR  26098.16149201  .00012226  00000+0  38455-3 0  9992,2 44752  53.0704   8.2561 0001973 354.8324   5.2656 15.33372890353864
STARLINK-1048,44753,53.0505,0.0003172,15.59003441,388.39300700644253,392.68705571513874,1 44753U 19074AS  26098.51308477  .00061289  00000+0  77372-3 0  9998,2 44753  53.0505  24.3991 0003172 128.0689 232.0610 15.59003441353645
STARLINK-1063,44768,53.1574,0.0003581,15.33226072,463.7436725278767,468.6455828396238,1 44768U 19074BH  26098.64269491  .00056183  00000+0  17241-2 0  9995,2 44768  53.1574  80.0087 0003581  97.7243 262.4166 15.33226072352905
STARLINK-1067,44771,53.0475,0.00064,15.64005783,371.7769161830365,380.4223390663956,1 44771U 19074BL  26098.58339120  .00098684  00000+0  10184-2 0  9990,2 44771  53.0475  58.5151 0006400  90.7884 125.9212 15.64005783  5893
STARLINK-1068,44772,53.0468,0.0004218,15.68014672,361.73842167717066,367.4265798480146,1 44772U 19074BM  26098.61889688  .00056951  00000+0  50546-3 0  9992,2 44772  53.0468  32.7914 0004218  56.1755 303.9661 15.68014672353539
STARLINK-1114,44927,53.0453,0.0004241,15.56069407,396.17157246296574,401.9199788932956,1 44927U 20001P   26098.60457897  .00087893  00000+0  12308-2 0  9990,2 44927  53.0453 185.1736 0004241 272.7827  87.2698 15.56069407344740
STARLINK-1123,44930,53.1486,0.000318,15.31043292,470.5197416699539,474.8768729253952,1 44930U 20001S   26098.56525844  .00053313  00000+0  17528-2 0  9996,2 44930  53.1486 206.4591 0003180  18.4581 341.6534 15.31043292344440
STARLINK-1094,44941,53.156,0.0002071,15.3268498,466.3875989859962,469.22318832544806,1 44941U 20001AD  26098.51785235  .00048663  00000+0  15221-2 0  9995,2 44941  53.1560 180.8535 0002071  31.5870 328.5256 15.32684980344804
STARLINK-1122,44949,53.1592,0.0001498,15.30304274,473.87715822651717,475.93032923333794,1 44949U 20001AM  26098.49331765  .00036362  00000+0  12299-2 0  9990,2 44949  53.1592 181.1722 0001498 106.3507 253.7659 15.30304274344796
STARLINK-1080,44961,53.0488,0.0001452,15.5274898,407.71852113074056,409.68941974855625,1 44961U 20001AZ  26098.28029852  .00099038  00000+0  15627-2 0  9999,2 44961  53.0488 146.2491 0001452 291.3980  68.6874 15.52748980345263
STARLINK-1090,44968,53.1536,0.0003045,15.31435392,469.44316821282155,473.61461474073076,1 44968U 20001BG  26098.46341583  .00052014  00000+0  16900-2 0  9992,2 44968  53.1536 168.1732 0003045  29.0325 331.0845 15.31435392344974
STARLINK-1132,45044,53.154,0.0004669,15.47571081,420.65808034273596,427.0097607883599,1 45044U 20006A   26098.47495995  .00066820  00000+0  12738-2 0  9996,2 45044  53.1540 112.4108 0004669   1.4152 358.6869 15.47571081341532
STARLINK-1131,45047,53.1586,0.0002113,15.31579679,469.65144584527843,472.5459328475963,1 45047U 20006D   26098.37943092  .00050687  00000+0  16402-2 0  9990,2 45047  53.1586 143.0196 0002113  62.6944 297.4272 15.31579679341095
STARLINK-1134,45048,53.0304,0.0004472,15.47690412,420.4425978068175,426.5259678821931,1 45048U 20006E   26098.37068132  .00086141  00000+0  16288-2 0  9990,2 45048  53.0304  96.7630 0004472 303.1755  56.8823 15.47690412341739
STARLINK-1156,45054,53.1579,0.0001201,15.3022597,474.31445050620005,475.9606070480122,1 45054U 20006L   26098.27989611  .00007208  00000+0  25506-3 0  9991,2 45054  53.1579 143.5495 0001201 100.4005 259.7131 15.30225970341072
STARLINK-1159,45057,53.0383,0.0003302,15.94265839,288.1588952946586,292.5627712637561,1 45057U 20006P   26098.58339120  .00199116  26386-4  52845-3 0  9998,2 45057  53.0383  83.1281 0003302  72.0153 183.6852 15.94265839  5969
STARLINK-1166,45060,53.0491,0.0003031,15.50461588,413.3182887188441,417.4365171499021,1 45060U 20006S   26098.60357799  .00073848  00000+0  12704-2 0  9999,2 45060  53.0491 129.6370 0003031   1.9790 358.1230 15.50461588341294
STARLINK-1169,45061,53.1569,0.0003662,15.32669627,465.34411067578367,470.35811236866175,1 45061U 20006T   26098.55810760  .00031594  00000+0  99488-3 0  9993,2 45061  53.1569 142.0839 0003662  50.7563 309.3763 15.32669627341126
STARLINK-1171,45062,53.0432,0.0004764,15.67292518,363.4403309490626,369.86676738430833,1 45062U 20006U   26098.39834548  .00055506  00000+0  50745-3 0  9998,2 45062  53.0432 103.5604 0004764  59.6076 300.5410 15.67292518341646
STARLINK-1133,45064,53.1598,0.0001321,15.30261557,474.1259739449097,475.936581003818,1 45064U 20006W   26098.31827806  .00011080  00000+0  38493-3 0  9996,2 45064  53.1598 120.1756 0001321  69.9592 290.1551 15.30261557341412
STARLINK-1167,45071,53.1568,0.0004208,15.32150602,466.515660969706,472.2785456710617,1 45071U 20006AD  26098.47164994  .00049173  00000+0  15635-2 0  9999,2 45071  53.1568 119.4593 0004208  58.3447 301.7965 15.32150602341435
STARLINK-1168,45072,53.1593,0.0001555,15.30210029,474.11943320620594,476.25081638701704,1 45072U 20006AE  26098.43004935  .00004797  00000+0  17395-3 0  9993,2 45072  53.1593 119.8667 0001555  80.2109 279.9067 15.30210029341427
STARLINK-1172,45074,53.1562,0.0003259,15.33116086,464.29129173018646,468.7526404442824,1 45074U 20006AG  26098.46712561  .00051074  00000+0  15749-2 0  9999,2 45074  53.1562 119.2436 0003259  58.4807 301.6513 15.33116086341439
STARLINK-1153,45080,53.159,0.0004146,15.32225267,466.33575355092034,472.0135443702384,1 45080U 20006AN  26098.45564847  .00092722  00000+0  29141-2 0  9993,2 45080  53.1590 119.4501 0004146  62.3499 297.7923 15.32225267341430
STARLINK-1151,45081,53.0516,0.0005106,15.69580028,356.6581630466271,363.5392493497966,1 45081U 20006AP  26098.28700805  .00068253  00000+0  56626-3 0  9992,2 45081  53.0516  94.0417 0005106  69.2279 290.9285 15.69580028341762
STARLINK-1185,45087,53.1612,0.0001778,15.3976225,445.5982980725994,448.0252498566206,1 45087U 20006AV  26098.39081607  .00068150  00000+0  16906-2 0  9994,2 45087  53.1612 103.3000 0001778  88.9880 271.1329 15.39762250341659
STARLINK-1183,45088,53.1602,0.0001271,15.3022137,474.28021025560975,476.0223161321146,1 45088U 20006AW  26098.27505612  .00002657  00000+0  10172-3 0  9999,2 45088  53.1602 105.1588 0001271  86.1563 273.9583 15.30221370341618
STARLINK-1152,45096,53.0376,0.0002571,15.42531745,436.8876265750732,440.39281342159666,1 45096U 20006BE  26098.63732546  .00062001  00000+0  14049-2 0  9991,2 45096  53.0376  64.8026 0002571  20.9064 339.2045 15.42531745342206
STARLINK-1184,45098,53.0509,0.0001951,15.11829252,529.2736009571854,531.9693985237845,1 45098U 20006BG  26098.23273556  .00028449  00000+0  16564-2 0  9992,2 45098  53.0509 111.8421 0001951 220.1145 139.9702 15.11829252341509
STARLINK-1193,45100,53.0504,0.0006803,15.60159025,382.5948635630348,391.79977743950894,1 45100U 20006BJ  26098.21656598  .00041923  00000+0  50933-3 0  9996,2 45100  53.0504  86.9690 0006803  62.6463 297.5241 15.60159025341856
STARLINK-1143,45179,53.0434,0.0004529,15.70700339,353.8439727606392,359.94456408357564,1 45179U 20012B   26098.48470260  .00090161  00000+0  71074-3 0  9995,2 45179  53.0434 183.3108 0004529 272.8821  87.1677 15.70700339340593
STARLINK-1202,45183,53.1572,5.29e-05,15.30100369,475.15000770635015,475.8751238304085,1 45183U 20012F   26098.60286235  .00009246  00000+0  32489-3 0  9992,2 45183  53.1572 260.3077 0000529  74.9840 285.1220 15.30100369339530
